NORAD_CAT_ID,OBJECT_NAME,OBJECT_TYPE,EPOCH,MEAN_MOTION,ECCENTRICITY,INCLINATION,RA_OF_ASC_NODE,ARG_OF_PERICENTER,MEAN_ANOMALY,BSTAR,MEAN_MOTION_DOT,MEAN_MOTION_DDOT,TLE_LINE0,TLE_LINE1,TLE_LINE2,SEMIMAJOR_AXIS,PERIOD,APOGEE,PERIGEE,DECAYED
53795.0,STARLINK-4742,PAYLOAD,2023-04-01 06:56:29,15.08844421,0.0001372,53.2184,52.4809,92.8233,267.2916,0.00046709,7.154e-05,0.0,0 STARLINK-4742,1 53795U 22111Y   23091.28922750  .00007154  00000-0  46709-3 0  9992,2 53795  53.2184  52.4809 0001372  92.8233 267.2916 15.08844421 31646,6917.867,95.437,540.681,538.783,0.0
53795.0,STARLINK-4742,PAYLOAD,2023-04-01 14:53:25,15.0883881,9.85e-05,53.219,50.9971,70.642,289.4678,0.00031218,4.684e-05,0.0,0 STARLINK-4742,1 53795U 22111Y   23091.62042849  .00004684  00000-0  31218-3 0  9996,2 53795  53.2190  50.9971 0000985  70.6420 289.4678 15.08838810 31698,6917.884,95.438,540.43,539.068,0.0
53795.0,STARLINK-4742,PAYLOAD,2023-04-02 06:47:16,15.08845899,0.0001301,53.2187,48.0215,92.3278,267.7863,0.00062855,9.731e-05,0.0,0 STARLINK-4742,1 53795U 22111Y   23092.28283011  .00009731  00000-0  62855-3 0  9996,2 53795  53.2187  48.0215 0001301  92.3278 267.7863 15.08845899 30990,6917.862,95.437,540.627,538.827,0.0
53795.0,STARLINK-4742,PAYLOAD,2023-04-03 03:27:17,15.08847899,0.0001133,53.219,44.1566,98.5845,261.5275,0.00042429,6.473e-05,0.0,0 STARLINK-4742,1 53795U 22111Y   23093.14395054  .00006473  00000-0  42429-3 0  9998,2 53795  53.2190  44.1566 0001133  98.5845 261.5275 15.08847899 31128,6917.856,95.437,540.505,538.937,0.0
53795.0,STARLINK-4742,PAYLOAD,2023-04-03 06:38:03,15.0885334,0.000112,53.2192,43.5606,100.4454,259.6664,0.00059948,9.269e-05,0.0,0 STARLINK-4742,1 53795U 22111Y   23093.27642920  .00009269  00000-0  59948-3 0  9999,2 53795  53.2192  43.5606 0001120 100.4454 259.6664 15.08853340 31941,6917.84,95.437,540.479,538.93,0.0
53795.0,STARLINK-4742,PAYLOAD,2023-04-03 20:56:31,15.08840736,0.0001115,53.2193,40.8847,134.4979,225.6104,0.00038144,5.788e-05,0.0,0 STARLINK-4742,1 53795U 22111Y   23093.87258962  .00005788  00000-0  38144-3 0  9991,2 53795  53.2193  40.8847 0001115 134.4979 225.6104 15.08840736 31231,6917.878,95.438,540.514,538.972,0.0
53795.0,STARLINK-4742,PAYLOAD,2023-04-04 03:18:04,15.08863045,9.94e-05,53.2188,39.6974,120.5817,239.5273,0.001632,0.00025797,0.0,0 STARLINK-4742,1 53795U 22111Y   23094.13754751  .00025797  00000-0  16320-2 0  9991,2 53795  53.2188  39.6974 0000994 120.5817 239.5273 15.08863045 31276,6917.81,95.436,540.363,538.987,0.0
53795.0,STARLINK-4742,PAYLOAD,2023-04-04 20:47:19,15.0884432,0.0001001,53.2197,36.4242,101.7771,258.3333,0.00092469,0.00014461,0.0,0 STARLINK-4742,1 53795U 22111Y   23094.86619282  .00014461  00000-0  92469-3 0  9995,2 53795  53.2197  36.4242 0001001 101.7771 258.3333 15.08844320 31382,6917.867,95.437,540.425,539.04,0.0
53795.0,STARLINK-4742,PAYLOAD,2023-04-05 04:44:14,15.08833514,9.22e-05,53.219,34.938,107.8643,252.245,0.00012521,1.705e-05,0.0,0 STARLINK-4742,1 53795U 22111Y   23095.19739465  .00001705  00000-0  12521-3 0  9996,2 53795  53.2190  34.9380 0000922 107.8643 252.2450 15.08833514 31439,6917.9,95.438,540.403,539.127,0.0
53795.0,STARLINK-4742,PAYLOAD,2023-04-05 06:19:38,15.08835174,9.36e-05,53.2192,34.6409,109.1181,250.9913,4.9146e-05,4.94e-06,0.0,0 STARLINK-4742,1 53795U 22111Y   23095.26363439  .00000494  00000-0  49146-4 0  9996,2 53795  53.2192  34.6409 0000936 109.1181 250.9913 15.08835174 32240,6917.895,95.438,540.408,539.113,0.0
53795.0,STARLINK-4742,PAYLOAD,2023-04-06 04:35:01,15.08851628,8.84e-05,53.2187,30.4779,105.0241,255.0849,0.00044267,6.767e-05,0.0,0 STARLINK-4742,1 53795U 22111Y   23096.19099138  .00006767  00000-0  44267-3 0  9998,2 53795  53.2187  30.4779 0000884 105.0241 255.0849 15.08851628 31584,6917.845,95.437,540.321,539.098,0.0
53795.0,STARLINK-4742,PAYLOAD,2023-04-07 06:01:11,15.08848171,8.61e-05,53.218,25.72,99.9761,260.1328,0.00027101,4.029e-05,0.0,0 STARLINK-4742,1 53795U 22111Y   23097.25083118  .00004029  00000-0  27101-3 0  9994,2 53795  53.2180  25.7200 0000861  99.9761 260.1328 15.08848171 31742,6917.855,95.437,540.316,539.125,0.0
53795.0,STARLINK-4742,PAYLOAD,2023-04-07 18:44:17,15.08844723,8.76e-05,53.2174,23.3439,94.9269,265.1823,0.00015795,2.227e-05,0.0,0 STARLINK-4742,1 53795U 22111Y   23097.78075268  .00002227  00000-0  15795-3 0  9993,2 53795  53.2174  23.3439 0000876  94.9269 265.1823 15.08844723 31820,6917.866,95.437,540.337,539.125,0.0
53795.0,STARLINK-4742,PAYLOAD,2023-04-08 04:16:35,15.08854567,8.59e-05,53.2177,21.5591,96.2048,263.9042,0.00026241,3.893e-05,0.0,0 STARLINK-4742,1 53795U 22111Y   23098.17818649  .00003893  00000-0  26241-3 0  9993,2 53795  53.2177  21.5591 0000859  96.2048 263.9042 15.08854567 31885,6917.836,95.437,540.295,539.107,0.0
53795.0,STARLINK-4742,PAYLOAD,2023-04-09 04:07:22,15.08846405,0.0001056,53.2181,17.0974,89.697,270.4143,0.00019099,2.754e-05,0.0,0 STARLINK-4742,1 53795U 22111Y   23099.17179249  .00002754  00000-0  19099-3 0  9998,2 53795  53.2181  17.0974 0001056  89.6970 270.4143 15.08846405 32030,6917.861,95.437,540.456,538.995,0.0
53795.0,STARLINK-4742,PAYLOAD,2023-04-10 03:58:10,15.08841558,0.0001171,53.2186,12.6376,89.2041,270.9085,0.00016018,2.262e-05,0.0,0 STARLINK-4742,1 53795U 22111Y   23100.16539697  .00002262  00000-0  16018-3 0  9999,2 53795  53.2186  12.6376 0001171  89.2041 270.9085 15.08841558 32185,6917.876,95.437,540.551,538.931,0.0
53795.0,STARLINK-4742,PAYLOAD,2023-04-11 03:48:56,15.08861184,0.0001269,53.2191,8.1769,82.5233,277.5903,0.00060477,9.356e-05,0.0,0 STARLINK-4742,1 53795U 22111Y   23101.15899172  .00009356  00000-0  60477-3 0  9995,2 53795  53.2191   8.1769 0001269  82.5233 277.5903 15.08861184 33139,6917.816,95.436,540.559,538.803,0.0
53795.0,STARLINK-4742,PAYLOAD,2023-04-11 18:07:25,15.08838424,0.0001156,53.218,5.5001,66.5788,293.5326,-1.8973e-05,-5.9e-06,0.0,0 STARLINK-4742,1 53795U 22111Y   23101.75515853 -.00000590  00000-0 -18973-4 0  9990,2 53795  53.2180   5.5001 0001156  66.5788 293.5326 15.08838424 33227,6917.885,95.438,540.55,538.95,0.0
53795.0,STARLINK-4742,PAYLOAD,2023-04-12 02:04:21,15.08839749,8e-05,53.2174,4.0136,86.9682,273.1401,0.00020702,3.009e-05,0.0,0 STARLINK-4742,1 53795U 22111Y   23102.08635829  .00003009  00000-0  20702-3 0  9991,2 53795  53.2174   4.0136 0000800  86.9682 273.1401 15.08839749 33271,6917.881,95.438,540.3,539.193,0.0
53795.0,STARLINK-4742,PAYLOAD,2023-04-13 01:55:08,15.08839098,8.21e-05,53.218,359.5551,95.9062,264.2023,0.00038127,5.785e-05,0.0,0 STARLINK-4742,1 53795U 22111Y   23103.07996387  .00005785  00000-0  38127-3 0  9993,2 53795  53.2180 359.5551 0000821  95.9062 264.2023 15.08839098 33427,6917.883,95.438,540.316,539.18,0.0
53795.0,STARLINK-4742,PAYLOAD,2023-04-14 01:45:55,15.08850297,7.03e-05,53.2175,355.0935,88.1456,271.9617,0.00036919,5.594e-05,0.0,0 STARLINK-4742,1 53795U 22111Y   23104.07355986  .00005594  00000-0  36919-3 0  9993,2 53795  53.2175 355.0935 0000703  88.1456 271.9617 15.08850297 33572,6917.849,95.437,540.2,539.228,0.0
53795.0,STARLINK-4742,PAYLOAD,2023-04-15 00:01:19,15.08852679,9.6e-05,53.218,350.9309,75.7643,284.3456,0.00036328,5.5e-05,0.0,0 STARLINK-4742,1 53795U 22111Y   23105.00091955  .00005500  00000-0  36328-3 0  9991,2 53795  53.2180 350.9309 0000960  75.7643 284.3456 15.08852679 32914,6917.842,95.437,540.371,539.043,0.0
53795.0,STARLINK-4742,PAYLOAD,2023-04-15 01:36:42,15.0885698,8.15e-05,53.2172,350.633,88.3526,271.7559,0.00052117,8.02e-05,0.0,0 STARLINK-4742,1 53795U 22111Y   23105.06715760  .00008020  00000-0  52117-3 0  9998,2 53795  53.2172 350.6330 0000815  88.3526 271.7559 15.08856980 33728,6917.828,95.436,540.257,539.13,0.0
53795.0,STARLINK-4742,PAYLOAD,2023-04-15 22:16:43,15.08841192,9.6e-05,53.217,346.7681,80.1622,279.9478,0.00036401,5.51e-05,0.0,0 STARLINK-4742,1 53795U 22111Y   23105.92828309  .00005510  00000-0  36401-3 0  9996,2 53795  53.2170 346.7681 0000960  80.1622 279.9478 15.08841192 33054,6917.877,95.437,540.406,539.078,0.0
53795.0,STARLINK-4742,PAYLOAD,2023-04-16 01:27:29,15.08846197,9.87e-05,53.2173,346.1731,75.2435,284.8667,0.00050306,7.729e-05,0.0,0 STARLINK-4742,1 53795U 22111Y   23106.06076295  .00007729  00000-0  50306-3 0  9995,2 53795  53.2173 346.1731 0000987  75.2435 284.8667 15.08846197 33878,6917.861,95.437,540.409,539.044,0.0
53795.0,STARLINK-4742,PAYLOAD,2023-04-16 20:32:07,15.08845737,9.12e-05,53.2166,342.6055,62.1954,297.913,0.00041737,6.362e-05,0.0,0 STARLINK-4742,1 53795U 22111Y   23106.85564492  .00006362  00000-0  41737-3 0  9993,2 53795  53.2166 342.6055 0000912  62.1954 297.9130 15.08845737 33193,6917.863,95.437,540.359,539.097,0.0
53795.0,STARLINK-4742,PAYLOAD,2023-04-16 22:07:30,15.08843876,6.35e-05,53.2171,342.3091,58.7724,301.333,0.00046097,7.057e-05,0.0,0 STARLINK-4742,1 53795U 22111Y   23106.92188382  .00007057  00000-0  46097-3 0  9997,2 53795  53.2171 342.3091 0000635  58.7724 301.3330 15.08843876 34009,6917.869,95.437,540.173,539.294,0.0
53795.0,STARLINK-4742,PAYLOAD,2023-04-17 01:18:16,15.08864836,7.97e-05,53.2171,341.7136,65.7387,294.3688,0.0010785,0.0001693,0.0,0 STARLINK-4742,1 53795U 22111Y   23107.05436084  .00016930  00000-0  10785-2 0  9991,2 53795  53.2171 341.7136 0000797  65.7387 294.3688 15.08864836 33223,6917.804,95.436,540.221,539.118,0.0
53795.0,STARLINK-4742,PAYLOAD,2023-04-17 20:22:53,15.08862096,0.0001016,53.2164,338.1447,80.9414,279.1693,0.00040599,6.183e-05,0.0,0 STARLINK-4742,1 53795U 22111Y   23107.84923169  .00006183  00000-0  40599-3 0  9999,2 53795  53.2164 338.1447 0001016  80.9414 279.1693 15.08862096 33341,6917.813,95.436,540.381,538.975,0.0
53795.0,STARLINK-4742,PAYLOAD,2023-04-17 21:58:16,15.08863855,0.0001027,53.2165,337.8474,76.5597,283.5509,0.00043543,6.653e-05,0.0,0 STARLINK-4742,1 53795U 22111Y   23107.91547037  .00006653  00000-0  43543-3 0  9997,2 53795  53.2165 337.8474 0001027  76.5597 283.5509 15.08863855 34152,6917.807,95.436,540.383,538.962,0.0
